0 COSMOS 1275 DEB
1 12771U 81053DQ  13282.15515620  .00000711  00000-0  83977-3 0  8407
2 12771 082.8683 295.0935 0161840 228.6214 220.0385 13.61339182588348
0 COSMOS 1275 DEB
1 12771U 81053DQ  13288.10483465  .00000863  00000-0  10210-2 0  8428
2 12771 082.8677 290.7394 0161965 212.3848 218.4638 13.61348624589156
0 COSMOS 1275 DEB
1 12771U 81053DQ  13290.97047866  .00000765  00000-0  90347-3 0  8439
2 12771 082.8681 288.6418 0161959 204.5561 222.6145 13.61353076589542
0 COSMOS 1275 DEB
1 12771U 81053DQ  13293.02603822  .00000847  00000-0  10013-2 0  8441
2 12771 082.8684 287.1374 0162057 198.9265 216.6900 13.61355828589827
0 COSMOS 1275 DEB
1 12771U 81053DQ  13295.09112597  .00000879  00000-0  10398-2 0  8456
2 12771 082.8685 285.6261 0162213 193.2909 257.4633 13.61359054590107
